[{"OBJECT_NAME":"THEOS","OBJECT_ID":"2008-049A","EPOCH":"2026-03-09T23:28:13.334304","MEAN_MOTION":14.20116597,"ECCENTRICITY":0.00010425,"INCLINATION":98.5696,"RA_OF_ASC_NODE":129.4305,"ARG_OF_PERICENTER":90.3146,"MEAN_ANOMALY":269.8151,"EPHEMERIS_TYPE":0,"CLASSIFICATION_TYPE":"U","NORAD_CAT_ID":33396,"ELEMENT_SET_NO":999,"REV_AT_EPOCH":90388,"BSTAR":-7.5504934e-5,"MEAN_MOTION_DOT":-2.03e-6,"MEAN_MOTION_DDOT":0},{"OBJECT_NAME":"FENGYUN 1C DEB","OBJECT_ID":"1999-025CLH","EPOCH":"2026-03-07T20:17:04.963776","MEAN_MOTION":14.25622872,"ECCENTRICITY":0.00519952,"INCLINATION":98.6921,"RA_OF_ASC_NODE":204.1691,"ARG_OF_PERICENTER":229.6346,"MEAN_ANOMALY":284.1561,"EPHEMERIS_TYPE":0,"CLASSIFICATION_TYPE":"U","NORAD_CAT_ID":31906,"ELEMENT_SET_NO":999,"REV_AT_EPOCH":96341,"BSTAR":0.0032124431,"MEAN_MOTION_DOT":7.682e-5,"MEAN_MOTION_DDOT":0}]
